DUCHIFAT-1              
1 40021U 14033M   26160.08702089  .00082350  00000+0  90222-3 0  9992
2 40021  98.0464 218.1182 0004324 130.2252 229.9384 15.62989578654485
NANOSATC-BR1            
1 40024U 14033Q   26160.03741032  .00014864  00000+0  49566-3 0  9991
2 40024  98.0734 191.7047 0003543 185.9906 174.1292 15.31195370652739
QB50P1                  
1 40025U 14033R   26159.97738240  .00008544  00000+0  42192-3 0  9996
2 40025  98.0972 170.5484 0007210 248.4220 111.6244 15.18136091651780
DTUSAT-2                
1 40030U 14033W   26160.24594618  .00005707  00000+0  31024-3 0  9993
2 40030  98.0866 157.4695 0006101 258.5460 101.5086 15.14916834651488
QB50P2                  
1 40032U 14033Y   26160.24095752  .00005704  00000+0  30879-3 0  9994
2 40032  98.0755 156.6271 0007175 188.7079 171.4028 15.15057589651464
PERSEUS-M1              
1 40039U 14033AF  26160.07469549  .00001427  00000+0  13384-3 0  9991
2 40039  97.9642 104.0737 0010725 332.5515  27.5137 14.95610260649420
POLYITAN-1              
1 40042U 14033AJ  26160.02430242  .00015996  00000+0  50413-3 0  9998
2 40042  98.0953 185.5149 0007989 165.0271 195.1207 15.32968455652347
TIGRISAT                
1 40043U 14033AK  26159.96351942  .00002420  00000+0  28276-3 0  9999
2 40043  97.7823 310.1645 0050700 101.4521 259.2395 14.85130632644401
CANX-4                  
1 40055U 14034C   26160.18089849  .00000855  00000+0  11697-3 0  9992
2 40055  98.3133  35.1997 0013686  41.4631 318.7616 14.81249771643346
CANX-5                  
1 40056U 14034D   26160.17942456  .00000864  00000+0  11810-3 0  9991
2 40056  98.3135  35.2414 0013695  41.5932 318.6319 14.81266924634156
GONETS-M 10             
1 40063U 14036C   26160.26258745  .00000092  00000+0  59468-3 0  9996
2 40063  82.5112 312.5978 0022340 157.2806 202.9267 12.42945695541262
METEOR-M 2              
1 40069U 14037A   26160.26191314  .00000430  00000+0  21597-3 0  9999
2 40069  98.5114 136.2813 0006993  63.5189 296.6705 14.21460532618190
DX1                     
1 40071U 14037C   26160.23556897  .00001961  00000+0  20998-3 0  9994
2 40071  98.3862 121.4551 0006070 306.9013  53.1646 14.89961763644928
UKUBE-1                 
1 40074U 14037F   26160.23466731  .00007593  00000+0  42922-3 0  9992
2 40074  98.4239 162.6716 0002126 144.7688 215.3682 15.13424303647358
GAOFEN-2                
1 40118U 14049A   26160.27091301  .00000742  00000+0  10297-3 0  9994
2 40118  98.0107 224.4855 0005895 258.5732 101.4818 14.80890854638063
BRITE-PL2 (HEWELIUSZ)   
1 40119U 14049B   26160.27228885  .00001922  00000+0  18289-3 0  9994
2 40119  97.9089 272.2120 0015166 132.0173 228.2341 14.94568700640265
CBERS 4                 
1 40336U 14079A   26160.30029106 -.00000056  00000+0 -47103-5 0  9995
2 40336  98.3531 217.3790 0001996  71.4957 288.6446 14.35506681602829
SMAP                    
1 40376U 15003A   26160.28497195  .00000390  00000+0  84504-4 0  9995
2 40376  98.1276 167.4915 0001274  93.3644 266.7704 14.63359581606460
GONETS-M 11             
1 40552U 15020A   26160.28059907  .00000016  00000+0  45473-4 0  9992
2 40552  82.4873  35.9184 0016965  22.3720 337.8096 12.42876867507754
GONETS-M 12             
1 40553U 15020B   26160.25417714  .00000015  00000+0  40530-4 0  9992
2 40553  82.4907  37.0566 0015713   7.9259 352.2066 12.42890973507747
GONETS-M 13             
1 40554U 15020C   26160.30802315  .00000041  00000+0  22633-3 0  9996
2 40554  82.4869  35.6405 0014056 353.5049   6.5847 12.42870124507727
DMC3-FM1                
1 40715U 15032A   26160.25827042  .00001058  00000+0  12781-3 0  9998
2 40715  97.6472  25.7439 0007212  80.2620 279.9410 14.85731684588734
DMC3-FM2                
1 40716U 15032B   26160.28035164  .00000429  00000+0  55282-4 0  9993
2 40716  97.6526  27.3334 0007694  83.8380 276.3713 14.85735616588739
DMC3-FM3                
1 40717U 15032C   26160.23627537  .00000111  00000+0  18704-4 0  9996
2 40717  97.6576  29.0388 0006833  84.1545 276.0449 14.85722776588730
CARBONITE 1 (CBNT-1)    
1 40718U 15032D   26160.29131764  .00000741  00000+0  96002-4 0  9991
2 40718  97.6510 338.6891 0013726 326.0852  33.9483 14.83561155588171
LILACSAT-2              
1 40908U 15049K   26160.27382722  .00016042  00000+0  27593-3 0  9999
2 40908  97.4660 196.8157 0005273 283.5589  76.5075 15.51182127594527
